[{"OBJECT_NAME":"GEESAT-4 11","OBJECT_ID":"2025-170L","EPOCH":"2026-03-09T21:54:41.896224","MEAN_MOTION":14.83783005,"ECCENTRICITY":0.00072132,"INCLINATION":49.9829,"RA_OF_ASC_NODE":274.1222,"ARG_OF_PERICENTER":73.5115,"MEAN_ANOMALY":286.6615,"EPHEMERIS_TYPE":0,"CLASSIFICATION_TYPE":"U","NORAD_CAT_ID":65129,"ELEMENT_SET_NO":999,"REV_AT_EPOCH":3169,"BSTAR":0.00036515131,"MEAN_MOTION_DOT":2.831e-5,"MEAN_MOTION_DDOT":0},{"OBJECT_NAME":"SL-8 DEB","OBJECT_ID":"1977-119C","EPOCH":"2026-03-09T21:52:18.604416","MEAN_MOTION":14.8576686,"ECCENTRICITY":0.00072349,"INCLINATION":74.0224,"RA_OF_ASC_NODE":241.4412,"ARG_OF_PERICENTER":246.6093,"MEAN_ANOMALY":113.4325,"EPHEMERIS_TYPE":0,"CLASSIFICATION_TYPE":"U","NORAD_CAT_ID":10524,"ELEMENT_SET_NO":999,"REV_AT_EPOCH":55161,"BSTAR":0.00083801225,"MEAN_MOTION_DOT":7.258e-5,"MEAN_MOTION_DDOT":0}]
